start=new Date('2022-08-16T00:00:00.000Z').valueOf();
sats=[{"RCS_SIZE":"LARGE","NORAD_CAT_ID":"53021","INCLINATION":"53.2187","FILE":"3537378","REF_FRAME":"TEME","PERIAPSIS":"348.179","ECCENTRICITY":"0.00025060","OBJECT_NAME":"STARLINK-4203","MEAN_MOTION":"15.73163067","EPOCH":"2022-08-15T22:00:00.999936","COUNTRY_CODE":"US","MEAN_MOTION_DOT":"0.00048160","TLE_LINE2":"2 53021  53.2187 184.7340 0002506  16.1689  83.5489 15.73163067  1300","APOAPSIS":"351.552","MEAN_MOTION_DDOT":"0.0000000000000","DECAY_DATE":null,"SITE":"AFETR","LAUNCH_DATE":"2022-07-07","CENTER_NAME":"EARTH","MEAN_ANOMALY":"83.5489","EPHEMERIS_TYPE":"0","REV_AT_EPOCH":"130","TLE_LINE1":"1 53021U 22076AM  22227.91667824  .00048160  00000-0  34611-3 0  9993","ELEMENT_SET_NO":"999","TIME_SYSTEM":"UTC","RA_OF_ASC_NODE":"184.7340","ARG_OF_PERICENTER":"16.1689","PERIOD":"91.535","CLASSIFICATION_TYPE":"U","OBJECT_ID":"2022-076AM","MEAN_ELEMENT_THEORY":"SGP4","GP_ID":"210301930","OBJECT_TYPE":"PAYLOAD","SEMIMAJOR_AXIS":"6728.000","BSTAR":"0.00034611000000"},{"OBJECT_NAME":"STARLINK-4216","ECCENTRICITY":"0.00022540","PERIAPSIS":"348.343","EPOCH":"2022-08-15T22:00:00.999936","MEAN_MOTION":"15.73165225","MEAN_MOTION_DOT":"0.00045040","COUNTRY_CODE":"US","APOAPSIS":"351.376","TLE_LINE2":"2 53022  53.2186 184.7371 0002254  19.5303  78.4452 15.73165225  1305","INCLINATION":"53.2186","NORAD_CAT_ID":"53022","RCS_SIZE":"LARGE","FILE":"3537378","REF_FRAME":"TEME","TIME_SYSTEM":"UTC","ELEMENT_SET_NO":"999","PERIOD":"91.535","ARG_OF_PERICENTER":"19.5303","RA_OF_ASC_NODE":"184.7371","MEAN_ELEMENT_THEORY":"SGP4","GP_ID":"210302338","OBJECT_ID":"2022-076AN","CLASSIFICATION_TYPE":"U","OBJECT_TYPE":"PAYLOAD","SEMIMAJOR_AXIS":"6727.994","BSTAR":"0.00032407000000","CENTER_NAME":"EARTH","LAUNCH_DATE":"2022-07-07","SITE":"AFETR","DECAY_DATE":null,"MEAN_MOTION_DDOT":"0.0000000000000","MEAN_ANOMALY":"78.4452","REV_AT_EPOCH":"130","EPHEMERIS_TYPE":"0","TLE_LINE1":"1 53022U 22076AN  22227.91667824  .00045040  00000-0  32407-3 0  9999"},{"TLE_LINE1":"1 53023U 22076AP  22227.91667824  .00047542  00000-0  34154-3 0  9990","EPHEMERIS_TYPE":"0","REV_AT_EPOCH":"130","MEAN_ANOMALY":"71.3865","DECAY_DATE":null,"MEAN_MOTION_DDOT":"0.0000000000000","CENTER_NAME":"EARTH","LAUNCH_DATE":"2022-07-07","SITE":"AFETR","BSTAR":"0.00034154000000","OBJECT_TYPE":"PAYLOAD","SEMIMAJOR_AXIS":"6727.957","CLASSIFICATION_TYPE":"U","MEAN_ELEMENT_THEORY":"SGP4","GP_ID":"210301384","OBJECT_ID":"2022-076AP","RA_OF_ASC_NODE":"184.7321","PERIOD":"91.534","ARG_OF_PERICENTER":"29.5383","ELEMENT_SET_NO":"999","TIME_SYSTEM":"UTC","REF_FRAME":"TEME","FILE":"3537378","NORAD_CAT_ID":"53023","RCS_SIZE":"LARGE","INCLINATION":"53.2169","APOAPSIS":"351.254","TLE_LINE2":"2 53023  53.2169 184.7321 0002129  29.5383  71.3865 15.73178443  1308","MEAN_MOTION_DOT":"0.00047542","COUNTRY_CODE":"US","MEAN_MOTION":"15.73178443","EPOCH":"2022-08-15T22:00:00.999936","PERIAPSIS":"348.389","OBJECT_NAME":"STARLINK-4284","ECCENTRICITY":"0.00021290"},{"COUNTRY_CODE":"US","MEAN_MOTION_DOT":"0.00046475","TLE_LINE2":"2 53024  53.2185 184.7322 0001824  27.8169  72.4721 15.73178761  1308","APOAPSIS":"351.048","PERIAPSIS":"348.594","ECCENTRICITY":"0.00018240","OBJECT_NAME":"STARLINK-4289","EPOCH":"2022-08-15T22:00:00.999936","MEAN_MOTION":"15.73178761","FILE":"3537378","REF_FRAME":"TEME","RCS_SIZE":"LARGE","NORAD_CAT_ID":"53024","INCLINATION":"53.2185","CLASSIFICATION_TYPE":"U","OBJECT_ID":"2022-076AQ","MEAN_ELEMENT_THEORY":"SGP4","GP_ID":"210301660","SEMIMAJOR_AXIS":"6727.956","OBJECT_TYPE":"PAYLOAD","BSTAR":"0.00033402000000","ELEMENT_SET_NO":"999","TIME_SYSTEM":"UTC","RA_OF_ASC_NODE":"184.7322","ARG_OF_PERICENTER":"27.8169","PERIOD":"91.534","EPHEMERIS_TYPE":"0","REV_AT_EPOCH":"130","TLE_LINE1":"1 53024U 22076AQ  22227.91667824  .00046475  00000-0  33402-3 0  9990","MEAN_MOTION_DDOT":"0.0000000000000","DECAY_DATE":null,"SITE":"AFETR","CENTER_NAME":"EARTH","LAUNCH_DATE":"2022-07-07","MEAN_ANOMALY":"72.4721"},{"RA_OF_ASC_NODE":"184.3163","ARG_OF_PERICENTER":"25.4095","PERIOD":"91.532","ELEMENT_SET_NO":"999","TIME_SYSTEM":"UTC","OBJECT_TYPE":"PAYLOAD","SEMIMAJOR_AXIS":"6727.856","BSTAR":"0.00015007000000","CLASSIFICATION_TYPE":"U","OBJECT_ID":"2022-076AR","MEAN_ELEMENT_THEORY":"SGP4","GP_ID":"210276489","MEAN_ANOMALY":"188.9311","MEAN_MOTION_DDOT":"0.0000000000000","DECAY_DATE":null,"SITE":"AFETR","LAUNCH_DATE":"2022-07-07","CENTER_NAME":"EARTH","TLE_LINE1":"1 53025U 22076AR  22228.00001157  .00020505  00000-0  15007-3 0  9990","EPHEMERIS_TYPE":"0","REV_AT_EPOCH":"671","EPOCH":"2022-08-16T00:00:00.999648","MEAN_MOTION":"15.73213729","PERIAPSIS":"348.217","ECCENTRICITY":"0.00022350","OBJECT_NAME":"STARLINK-4218","TLE_LINE2":"2 53025  53.2185 184.3163 0002235  25.4095 188.9311 15.73213729  6719","APOAPSIS":"351.225","COUNTRY_CODE":"US","MEAN_MOTION_DOT":"0.00020505","RCS_SIZE":"LARGE","NORAD_CAT_ID":"53025","INCLINATION":"53.2185","REF_FRAME":"TEME","FILE":"3537359"},{"REF_FRAME":"TEME","FILE":"3537359","INCLINATION":"53.2185","RCS_SIZE":"LARGE","NORAD_CAT_ID":"53026","TLE_LINE2":"2 53026  53.2185 184.3220 0002244  25.6631 185.6899 15.73238085  6719","APOAPSIS":"351.161","COUNTRY_CODE":"US","MEAN_MOTION_DOT":"-0.00038193","MEAN_MOTION":"15.73238085","EPOCH":"2022-08-16T00:00:00.999648","ECCENTRICITY":"0.00022440","OBJECT_NAME":"STARLINK-4119","PERIAPSIS":"348.142","TLE_LINE1":"1 53026U 22076AS  22228.00001157 -.00038193  00000-0 -26846-3 0  9998","REV_AT_EPOCH":"671","EPHEMERIS_TYPE":"0","MEAN_ANOMALY":"185.6899","SITE":"AFETR","LAUNCH_DATE":"2022-07-07","CENTER_NAME":"EARTH","MEAN_MOTION_DDOT":"0.0000000000000","DECAY_DATE":null,"OBJECT_TYPE":"PAYLOAD","BSTAR":"-0.00026846000000","SEMIMAJOR_AXIS":"6727.787","OBJECT_ID":"2022-076AS","GP_ID":"210276656","MEAN_ELEMENT_THEORY":"SGP4","CLASSIFICATION_TYPE":"U","ARG_OF_PERICENTER":"25.6631","PERIOD":"91.531","RA_OF_ASC_NODE":"184.3220","TIME_SYSTEM":"UTC","ELEMENT_SET_NO":"999"},{"SITE":"AFETR","CENTER_NAME":"EARTH","LAUNCH_DATE":"2022-07-07","MEAN_MOTION_DDOT":"0.0000000000000","DECAY_DATE":null,"MEAN_ANOMALY":"185.4442","REV_AT_EPOCH":"671","EPHEMERIS_TYPE":"0","TLE_LINE1":"1 53027U 22076AT  22228.00001157  .00016388  00000-0  12105-3 0  9992","TIME_SYSTEM":"UTC","ELEMENT_SET_NO":"999","ARG_OF_PERICENTER":"30.7223","PERIOD":"91.534","RA_OF_ASC_NODE":"184.3141","OBJECT_ID":"2022-076AT","MEAN_ELEMENT_THEORY":"SGP4","GP_ID":"210276484","CLASSIFICATION_TYPE":"U","OBJECT_TYPE":"PAYLOAD","SEMIMAJOR_AXIS":"6727.950","BSTAR":"0.00012105000000","INCLINATION":"53.2170","RCS_SIZE":"LARGE","NORAD_CAT_ID":"53027","FILE":"3537359","REF_FRAME":"TEME","ECCENTRICITY":"0.00017050","OBJECT_NAME":"STARLINK-4158","PERIAPSIS":"348.668","MEAN_MOTION":"15.73180613","EPOCH":"2022-08-16T00:00:00.999648","COUNTRY_CODE":"US","MEAN_MOTION_DOT":"0.00016388","TLE_LINE2":"2 53027  53.2170 184.3141 0001705  30.7223 185.4442 15.73180613  6716","APOAPSIS":"350.963"},{"REF_FRAME":"TEME","FILE":"3537378","INCLINATION":"53.2187","RCS_SIZE":"LARGE","NORAD_CAT_ID":"53028","TLE_LINE2":"2 53028  53.2187 184.7198 0002236  51.9698  54.3121 15.73706883  1303","APOAPSIS":"349.819","COUNTRY_CODE":"US","MEAN_MOTION_DOT":"0.00048052","EPOCH":"2022-08-15T22:00:00.999936","MEAN_MOTION":"15.73706883","ECCENTRICITY":"0.00022360","OBJECT_NAME":"STARLINK-4161","PERIAPSIS":"346.811","TLE_LINE1":"1 53028U 22076AU  22227.91667824  .00048052  00000-0  33743-3 0  9995","REV_AT_EPOCH":"130","EPHEMERIS_TYPE":"0","MEAN_ANOMALY":"54.3121","SITE":"AFETR","LAUNCH_DATE":"2022-07-07","CENTER_NAME":"EARTH","MEAN_MOTION_DDOT":"0.0000000000000","DECAY_DATE":null,"OBJECT_TYPE":"PAYLOAD","BSTAR":"0.00033743000000","SEMIMAJOR_AXIS":"6726.450","OBJECT_ID":"2022-076AU","MEAN_ELEMENT_THEORY":"SGP4","GP_ID":"210302068","CLASSIFICATION_TYPE":"U","ARG_OF_PERICENTER":"51.9698","PERIOD":"91.504","RA_OF_ASC_NODE":"184.7198","TIME_SYSTEM":"UTC","ELEMENT_SET_NO":"999"},{"INCLINATION":"53.2170","NORAD_CAT_ID":"53029","RCS_SIZE":"LARGE","REF_FRAME":"TEME","FILE":"3537378","EPOCH":"2022-08-15T22:00:00.999936","MEAN_MOTION":"15.73164873","OBJECT_NAME":"STARLINK-4143","ECCENTRICITY":"0.00022880","PERIAPSIS":"348.321","APOAPSIS":"351.400","TLE_LINE2":"2 53029  53.2170 184.7255 0002288  30.8877  73.5557 15.73164873  1305","MEAN_MOTION_DOT":"0.00046560","COUNTRY_CODE":"US","MEAN_ANOMALY":"73.5557","CENTER_NAME":"EARTH","LAUNCH_DATE":"2022-07-07","SITE":"AFETR","DECAY_DATE":null,"MEAN_MOTION_DDOT":"0.0000000000000","TLE_LINE1":"1 53029U 22076AV  22227.91667824  .00046560  00000-0  33480-3 0  9996","REV_AT_EPOCH":"130","EPHEMERIS_TYPE":"0","PERIOD":"91.535","ARG_OF_PERICENTER":"30.8877","RA_OF_ASC_NODE":"184.7255","TIME_SYSTEM":"UTC","ELEMENT_SET_NO":"999","OBJECT_TYPE":"PAYLOAD","SEMIMAJOR_AXIS":"6727.995","BSTAR":"0.00033480000000","MEAN_ELEMENT_THEORY":"SGP4","GP_ID":"210301931","OBJECT_ID":"2022-076AV","CLASSIFICATION_TYPE":"U"},{"TLE_LINE2":"2 53030  53.2185 184.7261 0001671  41.7003  61.0178 15.73166997  1307","APOAPSIS":"350.979","COUNTRY_CODE":"US","MEAN_MOTION_DOT":"0.00045125","EPOCH":"2022-08-15T22:00:00.999936","MEAN_MOTION":"15.73166997","ECCENTRICITY":"0.00016710","OBJECT_NAME":"STARLINK-4160","PERIAPSIS":"348.730","REF_FRAME":"TEME","FILE":"3537378","INCLINATION":"53.2185","RCS_SIZE":"LARGE","NORAD_CAT_ID":"53030","OBJECT_TYPE":"PAYLOAD","SEMIMAJOR_AXIS":"6727.989","BSTAR":"0.00032466000000","OBJECT_ID":"2022-076AW","GP_ID":"210302339","MEAN_ELEMENT_THEORY":"SGP4","CLASSIFICATION_TYPE":"U","ARG_OF_PERICENTER":"41.7003","PERIOD":"91.535","RA_OF_ASC_NODE":"184.7261","TIME_SYSTEM":"UTC","ELEMENT_SET_NO":"999","TLE_LINE1":"1 53030U 22076AW  22227.91667824  .00045125  00000-0  32466-3 0  9997","REV_AT_EPOCH":"130","EPHEMERIS_TYPE":"0","MEAN_ANOMALY":"61.0178","SITE":"AFETR","LAUNCH_DATE":"2022-07-07","CENTER_NAME":"EARTH","MEAN_MOTION_DDOT":"0.0000000000000","DECAY_DATE":null}];
